start=new Date('2023-03-20T00:00:00.000Z').valueOf();
sats=[{"REF_FRAME":"TEME","GP_ID":"228444137","REV_AT_EPOCH":"6638","MEAN_ANOMALY":"266.1160","OBJECT_ID":"2022-001Z","TIME_SYSTEM":"UTC","SITE":"AFETR","COUNTRY_CODE":"US","ECCENTRICITY":"0.00012350","SEMIMAJOR_AXIS":"6917.838","OBJECT_NAME":"STARLINK-3337","MEAN_MOTION_DOT":"0.00008633","NORAD_CAT_ID":"50826","RCS_SIZE":"LARGE","CLASSIFICATION_TYPE":"U","PERIOD":"95.437","EPHEMERIS_TYPE":"0","MEAN_ELEMENT_THEORY":"SGP4","LAUNCH_DATE":"2022-01-06","DECAY_DATE":null,"ARG_OF_PERICENTER":"93.9974","EPOCH":"2023-03-19T04:32:01.954464","APOAPSIS":"540.558","FILE":"3865049","ELEMENT_SET_NO":"999","OBJECT_TYPE":"PAYLOAD","TLE_LINE2":"2 50826  53.2157   6.6132 0001235  93.9974 266.1160 15.08853751 66384","MEAN_MOTION":"15.08853751","CENTER_NAME":"EARTH","PERIAPSIS":"538.849","INCLINATION":"53.2157","RA_OF_ASC_NODE":"6.6132","MEAN_MOTION_DDOT":"0.0000000000000","BSTAR":"0.00055960000000","TLE_LINE1":"1 50826U 22001Z   23078.18891151  .00008633  00000-0  55960-3 0  9998"},{"TIME_SYSTEM":"UTC","OBJECT_ID":"2022-001AA","MEAN_ANOMALY":"292.2943","REV_AT_EPOCH":"6647","GP_ID":"228477566","REF_FRAME":"TEME","ECCENTRICITY":"0.00013550","COUNTRY_CODE":"US","SITE":"AFETR","EPHEMERIS_TYPE":"0","PERIOD":"95.438","CLASSIFICATION_TYPE":"U","RCS_SIZE":"LARGE","OBJECT_NAME":"STARLINK-3329","MEAN_MOTION_DOT":"0.00013130","NORAD_CAT_ID":"50827","SEMIMAJOR_AXIS":"6917.881","EPOCH":"2023-03-19T19:38:11.875200","DECAY_DATE":null,"ARG_OF_PERICENTER":"67.8193","LAUNCH_DATE":"2022-01-06","MEAN_ELEMENT_THEORY":"SGP4","ELEMENT_SET_NO":"999","FILE":"3865354","APOAPSIS":"540.684","MEAN_MOTION":"15.08839664","OBJECT_TYPE":"PAYLOAD","TLE_LINE2":"2 50827  53.2184   3.7851 0001355  67.8193 292.2943 15.08839664 66473","TLE_LINE1":"1 50827U 22001AA  23078.81819300  .00013130  00000-0  84154-3 0  9990","BSTAR":"0.00084154000000","MEAN_MOTION_DDOT":"0.0000000000000","RA_OF_ASC_NODE":"3.7851","INCLINATION":"53.2184","PERIAPSIS":"538.809","CENTER_NAME":"EARTH"},{"CLASSIFICATION_TYPE":"U","RCS_SIZE":"LARGE","EPHEMERIS_TYPE":"0","PERIOD":"95.437","SEMIMAJOR_AXIS":"6917.864","NORAD_CAT_ID":"50828","OBJECT_NAME":"STARLINK-3290","MEAN_MOTION_DOT":"0.00000512","ECCENTRICITY":"0.00021660","COUNTRY_CODE":"US","SITE":"AFETR","OBJECT_ID":"2022-001AB","MEAN_ANOMALY":"270.9331","TIME_SYSTEM":"UTC","REF_FRAME":"TEME","REV_AT_EPOCH":"6632","GP_ID":"228478318","MEAN_MOTION_DDOT":"0.0000000000000","BSTAR":"0.00005027500000","TLE_LINE1":"1 50828U 22001AB  23078.81546994  .00000512  00000-0  50275-4 0  9995","INCLINATION":"53.2188","PERIAPSIS":"538.231","CENTER_NAME":"EARTH","RA_OF_ASC_NODE":"3.8005","MEAN_MOTION":"15.08845369","OBJECT_TYPE":"PAYLOAD","TLE_LINE2":"2 50828  53.2188   3.8005 0002166  89.1910 270.9331 15.08845369 66322","ELEMENT_SET_NO":"999","APOAPSIS":"541.227","FILE":"3865354","EPOCH":"2023-03-19T19:34:16.602816","DECAY_DATE":null,"ARG_OF_PERICENTER":"89.1910","LAUNCH_DATE":"2022-01-06","MEAN_ELEMENT_THEORY":"SGP4"},{"EPOCH":"2023-03-19T18:13:24.682944","DECAY_DATE":null,"ARG_OF_PERICENTER":"70.2887","MEAN_ELEMENT_THEORY":"SGP4","LAUNCH_DATE":"2022-01-06","ELEMENT_SET_NO":"999","FILE":"3865354","APOAPSIS":"540.665","MEAN_MOTION":"15.08838881","OBJECT_TYPE":"PAYLOAD","TLE_LINE2":"2 50829  53.2161   4.0529 0001325  70.2887 289.8248 15.08838881 66460","TLE_LINE1":"1 50829U 22001AC  23078.75931346 -.00000099  00000-0  11843-4 0  9997","MEAN_MOTION_DDOT":"0.0000000000000","BSTAR":"0.00001184300000","RA_OF_ASC_NODE":"4.0529","INCLINATION":"53.2161","CENTER_NAME":"EARTH","PERIAPSIS":"538.832","TIME_SYSTEM":"UTC","OBJECT_ID":"2022-001AC","MEAN_ANOMALY":"289.8248","GP_ID":"228478066","REV_AT_EPOCH":"6646","REF_FRAME":"TEME","ECCENTRICITY":"0.00013250","COUNTRY_CODE":"US","SITE":"AFETR","EPHEMERIS_TYPE":"0","PERIOD":"95.438","CLASSIFICATION_TYPE":"U","RCS_SIZE":"LARGE","MEAN_MOTION_DOT":"-0.00000099","OBJECT_NAME":"STARLINK-3294","NORAD_CAT_ID":"50829","SEMIMAJOR_AXIS":"6917.884"},{"TLE_LINE1":"1 50830U 22001AD  23078.51183214  .00006882  00000-0  44998-3 0  9997","BSTAR":"0.00044998000000","MEAN_MOTION_DDOT":"0.0000000000000","RA_OF_ASC_NODE":"15.1589","PERIAPSIS":"538.860","CENTER_NAME":"EARTH","INCLINATION":"53.2176","MEAN_MOTION":"15.08846865","OBJECT_TYPE":"PAYLOAD","TLE_LINE2":"2 50830  53.2176  15.1589 0001249  59.8685 300.2431 15.08846865 67566","ELEMENT_SET_NO":"999","FILE":"3865312","APOAPSIS":"540.588","DECAY_DATE":null,"ARG_OF_PERICENTER":"59.8685","EPOCH":"2023-03-19T12:17:02.296896","LAUNCH_DATE":"2022-01-06","MEAN_ELEMENT_THEORY":"SGP4","PERIOD":"95.437","EPHEMERIS_TYPE":"0","RCS_SIZE":"LARGE","CLASSIFICATION_TYPE":"U","OBJECT_NAME":"STARLINK-3278","MEAN_MOTION_DOT":"0.00006882","NORAD_CAT_ID":"50830","SEMIMAJOR_AXIS":"6917.859","ECCENTRICITY":"0.00012490","SITE":"AFETR","COUNTRY_CODE":"US","TIME_SYSTEM":"UTC","MEAN_ANOMALY":"300.2431","OBJECT_ID":"2022-001AD","REV_AT_EPOCH":"6756","GP_ID":"228453676","REF_FRAME":"TEME"},{"ECCENTRICITY":"0.00014130","COUNTRY_CODE":"US","SITE":"AFETR","CLASSIFICATION_TYPE":"U","RCS_SIZE":"LARGE","EPHEMERIS_TYPE":"0","PERIOD":"95.437","SEMIMAJOR_AXIS":"6917.874","NORAD_CAT_ID":"50831","OBJECT_NAME":"STARLINK-3299","MEAN_MOTION_DOT":"0.00000626","OBJECT_ID":"2022-001AE","MEAN_ANOMALY":"279.7650","TIME_SYSTEM":"UTC","REF_FRAME":"TEME","GP_ID":"228444889","REV_AT_EPOCH":"6643","MEAN_MOTION":"15.08841937","OBJECT_TYPE":"PAYLOAD","TLE_LINE2":"2 50831  53.2172   5.1732 0001413  80.3502 279.7650 15.08841937 66435","BSTAR":"0.00005741400000","MEAN_MOTION_DDOT":"0.0000000000000","TLE_LINE1":"1 50831U 22001AE  23078.52380293  .00000626  00000-0  57414-4 0  9993","INCLINATION":"53.2172","CENTER_NAME":"EARTH","PERIAPSIS":"538.762","RA_OF_ASC_NODE":"5.1732","EPOCH":"2023-03-19T12:34:16.573152","ARG_OF_PERICENTER":"80.3502","DECAY_DATE":null,"LAUNCH_DATE":"2022-01-06","MEAN_ELEMENT_THEORY":"SGP4","ELEMENT_SET_NO":"999","APOAPSIS":"540.717","FILE":"3865049"},{"REF_FRAME":"TEME","GP_ID":"228477818","REV_AT_EPOCH":"6634","OBJECT_ID":"2022-001AF","MEAN_ANOMALY":"257.1335","TIME_SYSTEM":"UTC","COUNTRY_CODE":"US","SITE":"AFETR","ECCENTRICITY":"0.00014350","SEMIMAJOR_AXIS":"6917.880","NORAD_CAT_ID":"50832","OBJECT_NAME":"STARLINK-3328","MEAN_MOTION_DOT":"0.00001855","CLASSIFICATION_TYPE":"U","RCS_SIZE":"LARGE","EPHEMERIS_TYPE":"0","PERIOD":"95.438","MEAN_ELEMENT_THEORY":"SGP4","LAUNCH_DATE":"2022-01-06","EPOCH":"2023-03-19T20:08:39.815808","ARG_OF_PERICENTER":"102.9817","DECAY_DATE":null,"APOAPSIS":"540.738","FILE":"3865354","ELEMENT_SET_NO":"999","OBJECT_TYPE":"PAYLOAD","TLE_LINE2":"2 50832  53.2169  13.6876 0001435 102.9817 257.1335 15.08840195 66344","MEAN_MOTION":"15.08840195","INCLINATION":"53.2169","CENTER_NAME":"EARTH","PERIAPSIS":"538.752","RA_OF_ASC_NODE":"13.6876","MEAN_MOTION_DDOT":"0.0000000000000","BSTAR":"0.00013460000000","TLE_LINE1":"1 50832U 22001AF  23078.83934972  .00001855  00000-0  13460-3 0  9994"},{"EPHEMERIS_TYPE":"0","PERIOD":"95.096","CLASSIFICATION_TYPE":"U","RCS_SIZE":"LARGE","NORAD_CAT_ID":"50833","OBJECT_NAME":"STARLINK-3316","MEAN_MOTION_DOT":"0.00063546","SEMIMAJOR_AXIS":"6901.378","ECCENTRICITY":"0.00044870","COUNTRY_CODE":"US","SITE":"AFETR","TIME_SYSTEM":"UTC","OBJECT_ID":"2022-001AG","MEAN_ANOMALY":"230.3949","GP_ID":"228453936","REV_AT_EPOCH":"6774","REF_FRAME":"TEME","TLE_LINE1":"1 50833U 22001AG  23078.49672089  .00063546  00000-0  34207-2 0  9991","BSTAR":"0.00342070000000","MEAN_MOTION_DDOT":"0.0000000000000","RA_OF_ASC_NODE":"4.2675","INCLINATION":"53.2180","PERIAPSIS":"520.146","CENTER_NAME":"EARTH","MEAN_MOTION":"15.14255153","TLE_LINE2":"2 50833  53.2180   4.2675 0004487 129.7442 230.3949 15.14255153 67742","OBJECT_TYPE":"PAYLOAD","ELEMENT_SET_NO":"999","FILE":"3865314","APOAPSIS":"526.339","EPOCH":"2023-03-19T11:55:16.684896","DECAY_DATE":null,"ARG_OF_PERICENTER":"129.7442","MEAN_ELEMENT_THEORY":"SGP4","LAUNCH_DATE":"2022-01-06"},{"MEAN_ELEMENT_THEORY":"SGP4","LAUNCH_DATE":"2022-01-06","EPOCH":"2023-03-19T19:52:46.200864","DECAY_DATE":null,"ARG_OF_PERICENTER":"77.3948","FILE":"3865354","APOAPSIS":"540.661","ELEMENT_SET_NO":"999","TLE_LINE2":"2 50834  53.2169  13.7397 0001327  77.3948 282.7192 15.08840941 66338","OBJECT_TYPE":"PAYLOAD","MEAN_MOTION":"15.08840941","RA_OF_ASC_NODE":"13.7397","INCLINATION":"53.2169","CENTER_NAME":"EARTH","PERIAPSIS":"538.825","TLE_LINE1":"1 50834U 22001AH  23078.82831251  .00001844  00000-0  13394-3 0  9995","MEAN_MOTION_DDOT":"0.0000000000000","BSTAR":"0.00013394000000","REV_AT_EPOCH":"6633","GP_ID":"228477317","REF_FRAME":"TEME","TIME_SYSTEM":"UTC","OBJECT_ID":"2022-001AH","MEAN_ANOMALY":"282.7192","COUNTRY_CODE":"US","SITE":"AFETR","ECCENTRICITY":"0.00013270","OBJECT_NAME":"STARLINK-3331","NORAD_CAT_ID":"50834","MEAN_MOTION_DOT":"0.00001844","SEMIMAJOR_AXIS":"6917.878","EPHEMERIS_TYPE":"0","PERIOD":"95.437","CLASSIFICATION_TYPE":"U","RCS_SIZE":"LARGE"},{"INCLINATION":"53.2181","CENTER_NAME":"EARTH","PERIAPSIS":"539.165","RA_OF_ASC_NODE":"14.9700","BSTAR":"0.00020073000000","MEAN_MOTION_DDOT":"0.0000000000000","TLE_LINE1":"1 50835U 22001AJ  23078.55695045  .00002908  00000-0  20073-3 0  9999","TLE_LINE2":"2 50835  53.2181  14.9700 0000850  91.2942 268.8148 15.08837610 66293","OBJECT_TYPE":"PAYLOAD","MEAN_MOTION":"15.08837610","APOAPSIS":"540.341","FILE":"3865049","ELEMENT_SET_NO":"999","LAUNCH_DATE":"2022-01-06","MEAN_ELEMENT_THEORY":"SGP4","EPOCH":"2023-03-19T13:22:00.518880","DECAY_DATE":null,"ARG_OF_PERICENTER":"91.2942","SEMIMAJOR_AXIS":"6917.888","NORAD_CAT_ID":"50835","OBJECT_NAME":"STARLINK-3310","MEAN_MOTION_DOT":"0.00002908","CLASSIFICATION_TYPE":"U","RCS_SIZE":"LARGE","EPHEMERIS_TYPE":"0","PERIOD":"95.438","COUNTRY_CODE":"US","SITE":"AFETR","ECCENTRICITY":"0.00008500","REF_FRAME":"TEME","GP_ID":"228444390","REV_AT_EPOCH":"6629","OBJECT_ID":"2022-001AJ","MEAN_ANOMALY":"268.8148","TIME_SYSTEM":"UTC"}];
